{
  "type": "FeatureCollection",
  "features": [
    {
      "type": "Feature",
      "properties": {
        "norad_id": 36585,
        "name": "GPS BIIF-1  (PRN 25)",
        "group": "gnss",
        "lat": -4.252128976447479,
        "lon": 39.165259489366804,
        "alt_km": 20349.148150402365,
        "timestamp": "2025-12-12T05:47:29.013146+00:00",
        "meta_object_name": "GPS BIIF-1  (PRN 25)",
        "meta_object_id": "2010-022A",
        "meta_epoch": "2025-12-11T07:42:38.318976",
        "meta_mean_motion": 2.00553138,
        "meta_eccentricity": 0.01260446,
        "meta_inclination": 54.3003,
        "meta_ra_of_asc_node": 216.1311,
        "meta_arg_of_pericenter": 65.0548,
        "meta_mean_anomaly": 174.6737,
        "meta_ephemeris_type": 0,
        "meta_classification_type": "U",
        "meta_norad_cat_id": 36585,
        "meta_element_set_no": 999,
        "meta_rev_at_epoch": 11382,
        "meta_bstar": 0,
        "meta_mean_motion_dot": 1.4e-07,
        "meta_mean_motion_ddot": 0,
        "tle_line1": "1 36585U 10022A   25345.32127684  .00000014  00000+0  00000+0 0  9997",
        "tle_line2": "2 36585  54.3003 216.1311 0126044  65.0548 174.6737  2.00553138113821"
      },
      "geometry": {
        "type": "Point",
        "coordinates": [
          39.165259489366804,
          -4.252128976447479
        ]
      }
    },
    {
      "type": "Feature",
      "properties": {
        "norad_id": 36828,
        "name": "BEIDOU-2 IGSO-1 (C06)",
        "group": "gnss",
        "lat": 49.36521128441438,
        "lon": -72.4187912828391,
        "alt_km": 35834.81132734361,
        "timestamp": "2025-12-12T05:47:29.013175+00:00",
        "meta_object_name": "BEIDOU-2 IGSO-1 (C06)",
        "meta_object_id": "2010-036A",
        "meta_epoch": "2025-12-11T21:55:21.552960",
        "meta_mean_motion": 1.00276302,
        "meta_eccentricity": 0.00511689,
        "meta_inclination": 54.2856,
        "meta_ra_of_asc_node": 164.6546,
        "meta_arg_of_pericenter": 215.8043,
        "meta_mean_anomaly": 137.1278,
        "meta_ephemeris_type": 0,
        "meta_classification_type": "U",
        "meta_norad_cat_id": 36828,
        "meta_element_set_no": 999,
        "meta_rev_at_epoch": 5621,
        "meta_bstar": 0,
        "meta_mean_motion_dot": -4.7e-07,
        "meta_mean_motion_ddot": 0,
        "tle_line1": "1 36828U 10036A   25345.91344390 -.00000047  00000+0  00000+0 0  9999",
        "tle_line2": "2 36828  54.2856 164.6546 0051168 215.8043 137.1278  1.00276302 56219"
      },
      "geometry": {
        "type": "Point",
        "coordinates": [
          -72.4187912828391,
          49.36521128441438
        ]
      }
    },
    {
      "type": "Feature",
      "properties": {
        "norad_id": 37210,
        "name": "BEIDOU-2 G4 (C04)",
        "group": "gnss",
        "lat": -3.1221834957314516,
        "lon": -31.767191834576195,
        "alt_km": 35768.96846314785,
        "timestamp": "2025-12-12T05:47:29.013190+00:00",
        "meta_object_name": "BEIDOU-2 G4 (C04)",
        "meta_object_id": "2010-057A",
        "meta_epoch": "2025-12-11T22:50:01.032576",
        "meta_mean_motion": 1.00271486,
        "meta_eccentricity": 0.0010925,
        "meta_inclination": 3.183,
        "meta_ra_of_asc_node": 69.9398,
        "meta_arg_of_pericenter": 190.653,
        "meta_mean_anomaly": 322.8905,
        "meta_ephemeris_type": 0,
        "meta_classification_type": "U",
        "meta_norad_cat_id": 37210,
        "meta_element_set_no": 999,
        "meta_rev_at_epoch": 5541,
        "meta_bstar": 0,
        "meta_mean_motion_dot": -1.03e-06,
        "meta_mean_motion_ddot": 0,
        "tle_line1": "1 37210U 10057A   25345.95140084 -.00000103  00000+0  00000+0 0  9999",
        "tle_line2": "2 37210   3.1830  69.9398 0010925 190.6530 322.8905  1.00271486 55418"
      },
      "geometry": {
        "type": "Point",
        "coordinates": [
          -31.767191834576195,
          -3.1221834957314516
        ]
      }
    },
    {
      "type": "Feature",
      "properties": {
        "norad_id": 37256,
        "name": "BEIDOU-2 IGSO-2 (C07)",
        "group": "gnss",
        "lat": 1.3424195571201707,
        "lon": -84.65424670414312,
        "alt_km": 35953.697524285235,
        "timestamp": "2025-12-12T05:47:29.013204+00:00",
        "meta_object_name": "BEIDOU-2 IGSO-2 (C07)",
        "meta_object_id": "2010-068A",
        "meta_epoch": "2025-12-03T17:22:36.027840",
        "meta_mean_motion": 1.0028872,
        "meta_eccentricity": 0.00492449,
        "meta_inclination": 47.9042,
        "meta_ra_of_asc_node": 274.2614,
        "meta_arg_of_pericenter": 216.1411,
        "meta_mean_anomaly": 310.24,
        "meta_ephemeris_type": 0,
        "meta_classification_type": "U",
        "meta_norad_cat_id": 37256,
        "meta_element_set_no": 999,
        "meta_rev_at_epoch": 5483,
        "meta_bstar": 0,
        "meta_mean_motion_dot": -2.25e-06,
        "meta_mean_motion_ddot": 0,
        "tle_line1": "1 37256U 10068A   25337.72402810 -.00000225  00000+0  00000+0 0  9990",
        "tle_line2": "2 37256  47.9042 274.2614 0049244 216.1411 310.2400  1.00288720 54834"
      },
      "geometry": {
        "type": "Point",
        "coordinates": [
          -84.65424670414312,
          1.3424195571201707
        ]
      }
    },
    {
      "type": "Feature",
      "properties": {
        "norad_id": 37384,
        "name": "BEIDOU-2 IGSO-3 (C08)",
        "group": "gnss",
        "lat": -45.642912169042546,
        "lon": -105.35954453326258,
        "alt_km": 35688.63817882925,
        "timestamp": "2025-12-12T05:47:29.013231+00:00",
        "meta_object_name": "BEIDOU-2 IGSO-3 (C08)",
        "meta_object_id": "2011-013A",
        "meta_epoch": "2025-12-11T15:37:03.975744",
        "meta_mean_motion": 1.00271037,
        "meta_eccentricity": 0.00354451,
        "meta_inclination": 62.1431,
        "meta_ra_of_asc_node": 41.9258,
        "meta_arg_of_pericenter": 187.4472,
        "meta_mean_anomaly": 193.0762,
        "meta_ephemeris_type": 0,
        "meta_classification_type": "U",
        "meta_norad_cat_id": 37384,
        "meta_element_set_no": 999,
        "meta_rev_at_epoch": 5378,
        "meta_bstar": 0,
        "meta_mean_motion_dot": -1.96e-06,
        "meta_mean_motion_ddot": 0,
        "tle_line1": "1 37384U 11013A   25345.65074046 -.00000196  00000+0  00000+0 0  9997",
        "tle_line2": "2 37384  62.1431  41.9258 0035445 187.4472 193.0762  1.00271037 53789"
      },
      "geometry": {
        "type": "Point",
        "coordinates": [
          -105.35954453326258,
          -45.642912169042546
        ]
      }
    },
    {
      "type": "Feature",
      "properties": {
        "norad_id": 37605,
        "name": "GSAT-8 (GAGAN/PRN 127)",
        "group": "gnss",
        "lat": 1.0675016374862303,
        "lon": -136.9212167936239,
        "alt_km": 35759.65715322297,
        "timestamp": "2025-12-12T05:47:29.013245+00:00",
        "meta_object_name": "GSAT-8 (GAGAN/PRN 127)",
        "meta_object_id": "2011-022A",
        "meta_epoch": "2025-12-11T22:20:01.868352",
        "meta_mean_motion": 1.00270949,
        "meta_eccentricity": 0.00087852,
        "meta_inclination": 1.6481,
        "meta_ra_of_asc_node": 84.196,
        "meta_arg_of_pericenter": 183.5332,
        "meta_mean_anomaly": 203.2432,
        "meta_ephemeris_type": 0,
        "meta_classification_type": "U",
        "meta_norad_cat_id": 37605,
        "meta_element_set_no": 999,
        "meta_rev_at_epoch": 5134,
        "meta_bstar": 0,
        "meta_mean_motion_dot": 9.3e-07,
        "meta_mean_motion_ddot": 0,
        "tle_line1": "1 37605U 11022A   25345.93057718  .00000093  00000+0  00000+0 0  9996",
        "tle_line2": "2 37605   1.6481  84.1960 0008785 183.5332 203.2432  1.00270949 51345"
      },
      "geometry": {
        "type": "Point",
        "coordinates": [
          -136.9212167936239,
          1.0675016374862303
        ]
      }
    },
    {
      "type": "Feature",
      "properties": {
        "norad_id": 37763,
        "name": "BEIDOU-2 IGSO-4 (C09)",
        "group": "gnss",
        "lat": 54.347024606522695,
        "lon": -95.92025104304658,
        "alt_km": 36227.52974166435,
        "timestamp": "2025-12-12T05:47:29.013258+00:00",
        "meta_object_name": "BEIDOU-2 IGSO-4 (C09)",
        "meta_object_id": "2011-038A",
        "meta_epoch": "2025-12-10T12:04:03.489024",
        "meta_mean_motion": 1.00284678,
        "meta_eccentricity": 0.01490344,
        "meta_inclination": 54.5829,
        "meta_ra_of_asc_node": 167.3658,
        "meta_arg_of_pericenter": 230.2355,
        "meta_mean_anomaly": 317.2212,
        "meta_ephemeris_type": 0,
        "meta_classification_type": "U",
        "meta_norad_cat_id": 37763,
        "meta_element_set_no": 999,
        "meta_rev_at_epoch": 5275,
        "meta_bstar": 0,
        "meta_mean_motion_dot": 3.6e-07,
        "meta_mean_motion_ddot": 0,
        "tle_line1": "1 37763U 11038A   25344.50281816  .00000036  00000+0  00000+0 0  9995",
        "tle_line2": "2 37763  54.5829 167.3658 0149034 230.2355 317.2212  1.00284678 52751"
      },
      "geometry": {
        "type": "Point",
        "coordinates": [
          -95.92025104304658,
          54.347024606522695
        ]
      }
    }
  ]
}